ONEWEB-0086             
1 45456U 20020AJ  23249.93829919 -.00000124  00000+0 -38642-3 0  9992
2 45456  87.8923 222.5184 0002110  97.7255 262.4112 13.11414786169679
ONEWEB-0088             
1 45457U 20020AK  23249.68611195  .00000571  00000+0  15762-2 0  9991
2 45457  87.8922 222.5492 0001930  88.5807 271.5542 13.11416828169577
ONEWEB-0102             
1 47258U 20100A   23250.33256088 -.00000300  00000+0 -86903-3 0  9999
2 47258  87.9057 192.2125 0002332  74.6636 285.4750 13.12439577131747
ONEWEB-0109             
1 47259U 20100B   23250.11446081 -.00000073  00000+0 -23749-3 0  9996
2 47259  87.8992 192.2605 0002082  79.8900 280.2463 13.12443845131546
ONEWEB-0110             
1 47260U 20100C   23249.90904815  .00000474  00000+0  12810-2 0  9996
2 47260  87.9054 192.2783 0002219  78.0439 282.0938 13.12444253131681
ONEWEB-0111             
1 47261U 20100D   23250.32198952 -.00000201  00000+0 -59499-3 0  9997
2 47261  87.9071 192.1830 0002100  76.1941 283.9421 13.12443364131576
ONEWEB-0114             
1 47262U 20100E   23250.35374023  .00000272  00000+0  72118-3 0  9995
2 47262  87.9054 192.2008 0002188  62.2554 297.8796 13.12446061131530
ONEWEB-0117             
1 47263U 20100F   23250.11656460 -.00000190  00000+0 -56380-3 0  9992
2 47263  87.8991 192.2701 0001993  78.7894 281.3459 13.12444490131518
